NUSAT-1 (FRESCO)        
1 41557U 16033B   22165.58340882  .00009635  00000+0  28908-3 0  9991
2 41557  97.3882 263.2749 0011314  36.2988  88.8941 15.34610428336947
BEESAT-4                
1 41619U 16040W   22165.10906811  .00013993  00000+0  46821-3 0  9992
2 41619  97.2168 215.8273 0011373 125.4825 234.7479 15.31015578320216
CAS-2T & KS-1Q          
1 41847U 16066G   22165.42144612  .00000840  00000+0  13669-3 0  9992
2 41847  98.5511 230.0960 0363114 218.8066 138.6532 14.38577426293913
NAYIF-1 (EO-88)         
1 42017U 17008BX  22165.17370492  .00015646  00000+0  46981-3 0  9991
2 42017  97.2694 231.3347 0003687 239.8189 120.2689 15.34512314296576
ZHUHAI-1 02 (CAS-4B)    
1 42759U 17034B   22165.60813492  .00002802  00000+0  17360-3 0  9992
2 42759  43.0191 348.3857 0010350 273.9481 197.0761 15.11876708275928
ZHUHAI-1 01 (CAS-4A)    
1 42761U 17034D   22165.56605666  .00002885  00000+0  17793-3 0  9993
2 42761  43.0194 347.4082 0010783 274.7193 131.2514 15.11969230275922
MAX VALIER SAT          
1 42778U 17036P   22165.37458148  .00008942  00000+0  34013-3 0  9997
2 42778  97.2049 206.5810 0009826 347.6639  12.4358 15.26945257276437
RADFXSAT (FOX-1B)       
1 43017U 17073E   22165.12945273  .00003000  00000+0  22958-3 0  9993
2 43017  97.6762  59.4598 0248204 198.4185 160.7922 14.81372596246623
FOX-1D (AO-92)          
1 43137U 18004AC  22165.47832426  .00010141  00000+0  35869-3 0  9993
2 43137  97.3691 240.6608 0007770  25.5576 334.6047 15.29331400245895
DIWATA-2B               
1 43678U 18084H   22165.56600480  .00000259  00000+0  31243-4 0  9996
2 43678  97.9697 298.7968 0008642 299.6318  60.4027 14.92162508197424
ES'HAIL 2               
1 43700U 18090A   22165.23730046  .00000152  00000+0  00000+0 0  9999
2 43700   0.0155 304.0778 0001383 153.8624 275.8050  1.00272420 12996
FOX-1CLIFF (AO-95)      
1 43770U 18099N   22165.38066549  .00002471  00000+0  22270-3 0  9994
2 43770  97.6206 231.8104 0012716 286.9399  73.0428 14.96418642192556
ITASAT 1                
1 43786U 18099AE  22165.44109845  .00001859  00000+0  16813-3 0  9990
2 43786  97.6233 232.7864 0013474 279.1481  80.8216 14.96568202192609
JY1SAT (JO-97)          
1 43803U 18099AX  22165.12569763  .00003142  00000+0  27720-3 0  9990
2 43803  97.6192 232.2325 0012997 278.0937  81.8810 14.97053927192574
UWE-4                   
1 43880U 18111E   22165.46180298  .00003168  00000+0  27195-3 0  9993
2 43880  97.6683  71.8256 0011484 336.0445  24.0241 14.98135151189252
NEXUS (FO-99)           
1 43937U 19003F   22165.35816100  .00012504  00000+0  42202-3 0  9993
2 43937  97.1298 198.8294 0021711 160.1008 200.1085 15.30591711189505
PSAT2 (NO-104)          
1 44354U 19036R   22165.41897017  .00069043 -54404-5  62285-3 0  9993
2 44354  28.5245 199.3978 0231394 296.2744  61.4252 15.39311217164217
JAISAT-1                
1 44419U 19038F   22165.46921122  .00008645  00000+0  43522-3 0  9997
2 44419  97.6352 135.5683 0020726 137.5571 222.7269 15.17262055162602
DUCHIFAT-3              
1 44854U 19089C   22165.27404178  .00002376  00000+0  18836-3 0  9997
2 44854  36.9641 119.1932 0008090 206.1357 299.5778 15.01048160137456
CAS-6 (TO-108)          
1 44881U 19093C   22165.53971078  .00000388  00000+0  55804-4 0  9997
2 44881  97.8924 244.7904 0014657 190.5784 169.5138 14.81723177134342
RS-44 & BREEZE-KM R/B   
1 44909U 19096E   22165.21990536  .00000028  00000+0  74912-4 0  9998
2 44909  82.5221 232.4228 0216669 327.5664  31.2271 12.79713383115090
ORBITAL FACTORY 2 (OF-2)
1 45113U 19071C   22165.45811942  .00024984  00000+0  52284-3 0  9992
2 45113  51.6396  74.1039 0010315 153.4081 206.7437 15.45248911132917
HUSKYSAT-1 (HO-107)     
1 45119U 19071J   22165.46211429  .00021833  00000+0  47237-3 0  9995
2 45119  51.6395  74.1059 0010146 150.3177 209.8387 15.44352916132905
BY70-2                  
1 45857U 20042B   22165.51875026  .00004913  00000+0  65925-3 0  9993
2 45857  97.9542 242.3854 0012401 124.1639 236.0786 14.79750342105021
SALSAT                  
1 46495U 20068K   22165.56932284  .00002353  00000+0  17218-3 0  9993
2 46495  97.7306 106.8683 0014808 289.7016  70.2611 15.04504685 93757
BY70-3                  
1 46839U 20079N   22165.46182528  .00017747  00000+0  42012-3 0  9997
2 46839  97.1979 237.5929 0004487 359.7197 123.7623 15.41831400 89788
RADFXSAT-2 (AO-109)     
1 47311U 21002C   22165.58417928  .00008863  00000+0  35934-3 0  9992
2 47311  60.6862  13.0480 0015474 333.3122  26.7168 15.25244314 78028
UVSQ-SAT                
1 47438U 21006AB  22165.11114760  .00005950  00000+0  31594-3 0  9995
2 47438  97.4371 224.1895 0010199 287.7839  72.2281 15.15648844 76779
DIY-1 (ARDUIQUBE)       
1 47963U 21022AH  22165.23873513  .00015009  00000+0  84097-3 0  9999
2 47963  97.5337  66.6359 0018532 137.1339 223.1340 15.13354598 66467
XW-3 (CAS-9)            
1 50466U 21131B   22165.52895707  .00000177  00000+0  72606-4 0  9997
2 50466  98.5805 242.7841 0005473 146.4144 213.7391 14.38499137 24493
TEVEL-3                 
1 50988U 22002E   22165.46577431  .00005442  00000+0  29990-3 0  9995
2 50988  97.4813 232.4974 0011178  78.9522  49.8528 15.14355224 22963
TEVEL-8                 
1 50989U 22002F   22165.47036831  .00005269  00000+0  29092-3 0  9991
2 50989  97.4830 232.5192 0011218  78.3074  48.2353 15.14302292 22963
TEVEL-5                 
1 50998U 22002Q   22165.47472317  .00005146  00000+0  27996-3 0  9999
2 50998  97.4810 232.5929 0012764  74.3441 344.7887 15.14824417 22975
TEVEL-6                 
1 50999U 22002R   22165.48637258  .00005204  00000+0  28303-3 0  9996
2 50999  97.4800 232.6026 0012771  74.3414  50.0992 15.14829344 22970
TEVEL-1                 
1 51013U 22002AF  22165.46785523  .00005355  00000+0  29538-3 0  9999
2 51013  97.4810 232.4841 0011037  78.8574  49.5457 15.14330942 22961
TEVEL-7                 
1 51062U 22002CG  22165.47149549  .00005300  00000+0  29270-3 0  9999
2 51062  97.4818 232.5091 0011119  77.1573  48.5754 15.14292516 22966
TEVEL-4                 
1 51063U 22002CH  22165.47193679  .00005293  00000+0  29241-3 0  9992
2 51063  97.4817 232.5081 0010921  77.0708  48.6094 15.14285318 22964
TEVEL-2                 
1 51069U 22002CP  22165.46627743  .00005415  00000+0  29852-3 0  9995
2 51069  97.4806 232.4873 0011022  78.8030  47.3779 15.14347329 22963
